[{"OBJECT_NAME":"OBJECT D","OBJECT_ID":"2024-174D","EPOCH":"2026-03-10T00:15:10.483200","MEAN_MOTION":15.28039787,"ECCENTRICITY":0.00110644,"INCLINATION":97.4441,"RA_OF_ASC_NODE":80.4677,"ARG_OF_PERICENTER":212.9968,"MEAN_ANOMALY":147.0582,"EPHEMERIS_TYPE":0,"CLASSIFICATION_TYPE":"U","NORAD_CAT_ID":61241,"ELEMENT_SET_NO":999,"REV_AT_EPOCH":8076,"BSTAR":0.00036340099,"MEAN_MOTION_DOT":9.884e-5,"MEAN_MOTION_DDOT":0},{"OBJECT_NAME":"STARLINK-34280","OBJECT_ID":"2025-137A","EPOCH":"2026-03-09T22:36:04.714272","MEAN_MOTION":15.30212268,"ECCENTRICITY":0.00014065,"INCLINATION":53.159,"RA_OF_ASC_NODE":334.0621,"ARG_OF_PERICENTER":147.1912,"MEAN_ANOMALY":212.9177,"EPHEMERIS_TYPE":0,"CLASSIFICATION_TYPE":"U","NORAD_CAT_ID":64594,"ELEMENT_SET_NO":999,"REV_AT_EPOCH":4077,"BSTAR":0.00095608936,"MEAN_MOTION_DOT":0.00028075,"MEAN_MOTION_DDOT":0}]
